NORAD_CAT_ID,OBJECT_NAME,OBJECT_TYPE,EPOCH,MEAN_MOTION,ECCENTRICITY,INCLINATION,RA_OF_ASC_NODE,ARG_OF_PERICENTER,MEAN_ANOMALY,BSTAR,MEAN_MOTION_DOT,MEAN_MOTION_DDOT,TLE_LINE0,TLE_LINE1,TLE_LINE2,SEMIMAJOR_AXIS,PERIOD,APOGEE,PERIGEE,DECAYED
55959.0,STARLINK-5929,PAYLOAD,2023-06-21 13:13:31,15.69932727,0.0003391,69.9977,271.755,268.8903,91.1904,1.7875e-05,1.938e-05,0.0,0 STARLINK-5929,1 55959U 23037AX  23172.55106419  .00001938  00000-0  17875-4 0  9997,2 55959  69.9977 271.7550 0003391 268.8903  91.1904 15.69932727 15226,6737.226,91.724,361.376,356.807,0.0
55959.0,STARLINK-5929,PAYLOAD,2023-06-21 16:17:03,15.69914038,0.0003167,69.9964,271.3951,270.955,89.1283,2.8148e-05,3.172e-05,0.0,0 STARLINK-5929,1 55959U 23037AX  23172.67850891  .00003172  00000-0  28148-4 0  9997,2 55959  69.9964 271.3951 0003167 270.9550  89.1283 15.69914038 15240,6737.28,91.725,361.279,357.011,0.0
55959.0,STARLINK-5929,PAYLOAD,2023-06-22 09:06:18,15.69931401,0.0003085,69.9973,269.4275,267.0908,92.9934,4.3706e-06,3.13e-06,0.0,0 STARLINK-5929,1 55959U 23037AX  23173.37938544  .00000313  00000-0  43706-5 0  9999,2 55959  69.9973 269.4275 0003085 267.0908  92.9934 15.69931401 15697,6737.23,91.724,361.174,357.017,0.0
55959.0,STARLINK-5929,PAYLOAD,2023-06-22 15:13:19,15.69927687,0.0003494,69.9973,268.7128,279.9127,80.1674,8.1667e-06,7.69e-06,0.0,0 STARLINK-5929,1 55959U 23037AX  23173.63425486  .00000769  00000-0  81667-5 0  9997,2 55959  69.9973 268.7128 0003494 279.9127  80.1674 15.69927687 15731,6737.241,91.724,361.46,356.752,0.0
55959.0,STARLINK-5929,PAYLOAD,2023-06-23 15:41:21,15.69932161,0.0003608,69.996,265.8405,268.1595,91.9187,4.5008e-06,3.28e-06,0.0,0 STARLINK-5929,1 55959U 23037AX  23174.65371893  .00000328  00000-0  45008-5 0  9992,2 55959  69.9960 265.8405 0003608 268.1595  91.9187 15.69932161 15898,6737.228,91.724,361.524,356.662,0.0
55959.0,STARLINK-5929,PAYLOAD,2023-06-24 08:30:38,15.69927086,0.000296,69.9983,263.8743,274.8653,85.2204,1.2655e-05,1.309e-05,0.0,0 STARLINK-5929,1 55959U 23037AX  23175.35460741  .00001309  00000-0  12655-4 0  9992,2 55959  69.9983 263.8743 0002960 274.8653  85.2204 15.69927086 16005,6737.243,91.724,361.102,357.113,0.0
55959.0,STARLINK-5929,PAYLOAD,2023-06-25 08:58:40,15.69921291,0.0003765,69.9991,261.0065,276.4056,83.6711,-1.8708e-06,-4.38e-06,0.0,0 STARLINK-5929,1 55959U 23037AX  23176.37407694 -.00000438  00000-0 -18708-5 0  9993,2 55959  69.9991 261.0065 0003765 276.4056  83.6711 15.69921291 16164,6737.259,91.724,361.661,356.588,0.0
55959.0,STARLINK-5929,PAYLOAD,2023-06-25 15:05:40,15.69928899,0.0003436,69.9993,260.2904,270.1288,89.9514,1.2366e-05,1.275e-05,0.0,0 STARLINK-5929,1 55959U 23037AX  23176.62893967  .00001275  00000-0  12366-4 0  9994,2 55959  69.9993 260.2904 0003436 270.1288  89.9514 15.69928899 16208,6737.237,91.724,361.417,356.788,0.0
55959.0,STARLINK-5929,PAYLOAD,2023-06-25 22:44:26,15.69918102,0.0003164,69.9995,259.3951,269.0873,90.996,8.9246e-06,8.6e-06,0.0,0 STARLINK-5929,1 55959U 23037AX  23176.94752925  .00000860  00000-0  89246-5 0  9998,2 55959  69.9995 259.3951 0003164 269.0873  90.9960 15.69918102 16254,6737.268,91.725,361.265,357.002,0.0
55959.0,STARLINK-5929,PAYLOAD,2023-06-27 11:26:29,15.69913134,0.0003125,69.9993,255.0952,263.3179,96.7661,-4.0112e-06,-6.95e-06,0.0,0 STARLINK-5929,1 55959U 23037AX  23178.47673521 -.00000695  00000-0 -40112-5 0  9999,2 55959  69.9993 255.0952 0003125 263.3179  96.7661 15.69913134 16497,6737.283,91.725,361.253,357.042,0.0
55959.0,STARLINK-5929,PAYLOAD,2023-06-28 04:15:45,15.69928258,0.0003038,69.9998,253.1255,266.8237,93.2611,1.9904e-05,2.182e-05,0.0,0 STARLINK-5929,1 55959U 23037AX  23179.17761353  .00002182  00000-0  19904-4 0  9993,2 55959  69.9998 253.1255 0003038 266.8237  93.2611 15.69928258 16606,6737.239,91.724,361.151,357.057,0.0
55959.0,STARLINK-5929,PAYLOAD,2023-06-29 07:47:18,15.69921298,0.0003058,69.9993,249.9003,257.9244,102.1609,2.3138e-05,2.57e-05,0.0,0 STARLINK-5929,1 55959U 23037AX  23180.32451770  .00002570  00000-0  23138-4 0  9996,2 55959  69.9993 249.9003 0003058 257.9244 102.1609 15.69921298 16789,6737.259,91.724,361.184,357.064,0.0
55959.0,STARLINK-5929,PAYLOAD,2023-07-01 10:15:07,15.69926052,0.0003039,69.9975,243.9894,269.0208,91.064,1.1311e-05,1.148e-05,0.0,0 STARLINK-5929,1 55959U 23037AX  23182.42716580  .00001148  00000-0  11311-4 0  9992,2 55959  69.9975 243.9894 0003039 269.0208  91.0640 15.69926052 17116,6737.246,91.724,361.158,357.063,0.0
55959.0,STARLINK-5929,PAYLOAD,2023-07-02 10:43:08,15.6994295,0.0003262,69.9973,241.1231,275.6039,84.4785,-4.8209e-06,-7.93e-06,0.0,0 STARLINK-5929,1 55959U 23037AX  23183.44662603 -.00000793  00000-0 -48209-5 0  9995,2 55959  69.9973 241.1231 0003262 275.6039  84.4785 15.69942950 17270,6737.197,91.723,361.26,356.865,0.0
55959.0,STARLINK-5929,PAYLOAD,2023-07-02 13:46:39,15.69927516,0.0003557,69.9965,240.7645,274.6456,85.4333,1.5943e-05,1.705e-05,0.0,0 STARLINK-5929,1 55959U 23037AX  23183.57406493  .00001705  00000-0  15943-4 0  9992,2 55959  69.9965 240.7645 0003557 274.6456  85.4333 15.69927516 17297,6737.241,91.724,361.503,356.71,0.0
55959.0,STARLINK-5929,PAYLOAD,2023-07-03 11:11:11,15.69925753,0.0003376,69.9975,238.2578,272.9774,87.1035,3.9242e-06,2.59e-06,0.0,0 STARLINK-5929,1 55959U 23037AX  23184.46610190  .00000259  00000-0  39242-5 0  9994,2 55959  69.9975 238.2578 0003376 272.9774  87.1035 15.69925753 17433,6737.246,91.724,361.386,356.837,0.0
55959.0,STARLINK-5929,PAYLOAD,2023-07-04 11:39:13,15.69924814,0.0002826,69.999,235.3921,258.6936,101.3942,1.0013e-05,9.92e-06,0.0,0 STARLINK-5929,1 55959U 23037AX  23185.48556894  .00000992  00000-0  10013-4 0  9995,2 55959  69.9990 235.3921 0002826 258.6936 101.3942 15.69924814 17590,6737.249,91.724,361.018,357.21,0.0
55959.0,STARLINK-5929,PAYLOAD,2023-07-05 06:00:14,15.69921488,0.0003246,69.9977,233.2392,264.5634,95.5191,4.5186e-06,3.31e-06,0.0,0 STARLINK-5929,1 55959U 23037AX  23186.25017257  .00000331  00000-0  45186-5 0  9993,2 55959  69.9977 233.2392 0003246 264.5634  95.5191 15.69921488 17710,6737.259,91.724,361.311,356.937,0.0
55959.0,STARLINK-5929,PAYLOAD,2023-07-05 15:10:45,15.6992673,0.0003224,69.999,232.166,272.1398,87.9428,1.4128e-05,1.487e-05,0.0,0 STARLINK-5929,1 55959U 23037AX  23186.63246890  .00001487  00000-0  14128-4 0  9996,2 55959  69.9990 232.1660 0003224 272.1398  87.9428 15.69926730 17778,6737.244,91.724,361.281,356.937,0.0
55959.0,STARLINK-5929,PAYLOAD,2023-07-06 04:56:31,15.69919055,0.0003253,69.9991,230.5553,261.2328,98.8499,1.4439e-05,1.523e-05,0.0,0 STARLINK-5929,1 55959U 23037AX  23187.20592270  .00001523  00000-0  14439-4 0  9992,2 55959  69.9991 230.5553 0003253 261.2328  98.8499 15.69919055 17867,6737.266,91.724,361.322,356.939,0.0
55959.0,STARLINK-5929,PAYLOAD,2023-07-07 05:24:33,15.6992103,0.0003342,69.9985,227.6873,267.194,92.8874,9.4278e-06,9.21e-06,0.0,0 STARLINK-5929,1 55959U 23037AX  23188.22539095  .00000921  00000-0  94278-5 0  9992,2 55959  69.9985 227.6873 0003342 267.1940  92.8874 15.69921030 18022,6737.26,91.724,361.377,356.873,0.0
55959.0,STARLINK-5929,PAYLOAD,2023-07-08 08:56:05,15.69924057,0.0003463,69.9985,224.4638,267.8259,92.254,4.9691e-06,3.85e-06,0.0,0 STARLINK-5929,1 55959U 23037AX  23189.37229036  .00000385  00000-0  49691-5 0  9993,2 55959  69.9985 224.4638 0003463 267.8259  92.2540 15.69924057 18206,6737.251,91.724,361.449,356.783,0.0
55959.0,STARLINK-5929,PAYLOAD,2023-07-09 03:17:07,15.69918085,0.0003506,69.9976,222.3135,267.8845,92.1949,2.4441e-06,8.1e-07,0.0,0 STARLINK-5929,1 55959U 23037AX  23190.13689663  .00000081  00000-0  24441-5 0  9994,2 55959  69.9976 222.3135 0003506 267.8845  92.1949 15.69918085 18323,6737.268,91.725,361.495,356.771,0.0
55959.0,STARLINK-5929,PAYLOAD,2023-07-09 12:27:38,15.69926438,0.0003472,69.9979,221.2389,266.323,93.7569,1.0824e-05,1.089e-05,0.0,0 STARLINK-5929,1 55959U 23037AX  23190.51919013  .00001089  00000-0  10824-4 0  9999,2 55959  69.9979 221.2389 0003472 266.3230  93.7569 15.69926438 18381,6737.244,91.724,361.449,356.77,0.0
55959.0,STARLINK-5929,PAYLOAD,2023-07-10 14:27:25,15.69924372,0.0003631,69.9976,218.1939,268.1885,91.8895,7.5357e-06,6.93e-06,0.0,0 STARLINK-5929,1 55959U 23037AX  23191.60237581  .00000693  00000-0  75357-5 0  9996,2 55959  69.9976 218.1939 0003631 268.1885  91.8895 15.69924372 18552,6737.25,91.724,361.562,356.669,0.0
55959.0,STARLINK-5929,PAYLOAD,2023-07-11 02:41:26,15.69919337,0.0003152,69.9975,216.7611,273.557,86.5265,7.5148e-06,6.91e-06,0.0,0 STARLINK-5929,1 55959U 23037AX  23192.11211472  .00000691  00000-0  75148-5 0  9990,2 55959  69.9975 216.7611 0003152 273.5570  86.5265 15.69919337 18637,6737.265,91.724,361.253,357.006,0.0
55959.0,STARLINK-5929,PAYLOAD,2023-07-11 10:20:11,15.69926917,0.0003588,69.9975,215.8652,268.4922,91.5862,3.0694e-06,1.56e-06,0.0,0 STARLINK-5929,1 55959U 23037AX  23192.43069326  .00000156  00000-0  30694-5 0  9997,2 55959  69.9975 215.8652 0003588 268.4922  91.5862 15.69926917 18685,6737.243,91.724,361.525,356.691,0.0
55959.0,STARLINK-5929,PAYLOAD,2023-07-11 11:51:57,15.69921048,0.0003475,69.9974,215.6849,270.6107,89.4691,-2.6511e-06,-5.32e-06,0.0,0 STARLINK-5929,1 55959U 23037AX  23192.49441471 -.00000532  00000-0 -26511-5 0  9991,2 55959  69.9974 215.6849 0003475 270.6107  89.4691 15.69921048 18692,6737.26,91.724,361.466,356.784,0.0
55959.0,STARLINK-5929,PAYLOAD,2023-07-12 07:44:43,15.69927788,0.0003572,69.9962,213.3552,266.4018,93.677,3.0522e-06,1.54e-06,0.0,0 STARLINK-5929,1 55959U 23037AX  23193.32272608  .00000154  00000-0  30522-5 0  9993,2 55959  69.9962 213.3552 0003572 266.4018  93.6770 15.69927788 18824,6737.241,91.724,361.512,356.699,0.0
55959.0,STARLINK-5929,PAYLOAD,2023-07-13 12:48:01,15.69919698,0.0003036,69.9979,209.9508,275.6123,84.4727,5.6199e-06,4.63e-06,0.0,0 STARLINK-5929,1 55959U 23037AX  23194.53334990  .00000463  00000-0  56199-5 0  9991,2 55959  69.9979 209.9508 0003036 275.6123  84.4727 15.69919698 19011,6737.264,91.724,361.174,357.083,0.0
